$$SOE
2459580.500000000, A.D. 2022-Jan-01 00:00:00.0000, 2.637111141471208E+08, -7.090147182940957E+07, 8.052109514138367E+06,
2459587.500000000, A.D. 2022-Jan-08 00:00:00.0000, 2.683610851904140E+08, -5.724741718016904E+07, 9.509603453261685E+06,
2459594.500000000, A.D. 2022-Jan-15 00:00:00.0000, 2.723819631258993E+08, -4.345912752027547E+07, 1.094480002100763E+07,
2459601.500000000, A.D. 2022-Jan-22 00:00:00.0000, 2.757745307244505E+08, -2.957055974699017E+07, 1.235474380692167E+07,
2459608.500000000, A.D. 2022-Jan-29 00:00:00.0000, 2.785417948359507E+08, -1.561491578428317E+07, 1.373666665604256E+07,
2459615.500000000, A.D. 2022-Feb-05 00:00:00.0000, 2.806888429544765E+08, -1.624478009645534E+06, 1.508799473846654E+07,
2459622.500000000, A.D. 2022-Feb-12 00:00:00.0000, 2.822226906942079E+08, 1.236953175961244E+07, 1.640635273610152E+07,
2459629.500000000, A.D. 2022-Feb-19 00:00:00.0000, 2.831521224143204E+08, 2.633707192305011E+07, 1.768956563983234E+07,
2459636.500000000, A.D. 2022-Feb-26 00:00:00.0000, 2.834875270185926E+08, 4.024937904438347E+07, 1.893565843238885E+07,
2459643.500000000, A.D. 2022-Mar-05 00:00:00.0000, 2.832407321222723E+08, 5.407904429858965E+07, 2.014285382960718E+07,
2459650.500000000, A.D. 2022-Mar-12 00:00:00.0000, 2.824248394890096E+08, 6.780006954752937E+07, 2.130956830528558E+07,
2459657.500000000, A.D. 2022-Mar-19 00:00:00.0000, 2.810540641114118E+08, 8.138790454636109E+07, 2.243440665040628E+07,
2459664.500000000, A.D. 2022-Mar-26 00:00:00.0000, 2.791435788736859E+08, 9.481946694462281E+07, 2.351615531550693E+07,
2459671.500000000, A.D. 2022-Apr-02 00:00:00.0000, 2.767093664018028E+08, 1.080731468147232E+08, 2.455377476685257E+07,
2459678.500000000, A.D. 2022-Apr-09 00:00:00.0000, 2.737680795526352E+08, 1.211287975506636E+08, 2.554639105827664E+07,
2459685.500000000, A.D. 2022-Apr-16 00:00:00.0000, 2.703369117422033E+08, 1.339677156170139E+08, 2.649328684545413E+07,
2459692.500000000, A.D. 2022-Apr-23 00:00:00.0000, 2.664334763767804E+08, 1.465726120095049E+08, 2.739389223187412E+07,
2459699.500000000, A.D. 2022-Apr-30 00:00:00.0000, 2.620756938027306E+08, 1.589275748857508E+08, 2.824777560202765E+07,
2459706.500000000, A.D. 2022-May-07 00:00:00.0000, 2.572816889159626E+08, 1.710180229709245E+08, 2.905463414443055E+07,
2459713.500000000, A.D. 2022-May-14 00:00:00.0000, 2.520697006954178E+08, 1.828306542146725E+08, 2.981428430414626E+07,
2459720.500000000, A.D. 2022-May-21 00:00:00.0000, 2.464580013523376E+08, 1.943533917626742E+08, 3.052665251272429E+07,
2459727.500000000, A.D. 2022-May-28 00:00:00.0000, 2.404648242297420E+08, 2.055753274462652E+08, 3.119176624294978E+07,
2459734.500000000, A.D. 2022-Jun-04 00:00:00.0000, 2.341083002577295E+08, 2.164866634949495E+08, 3.180974540186308E+07,
2459741.500000000, A.D. 2022-Jun-11 00:00:00.0000, 2.274064025772824E+08, 2.270786533526497E+08, 3.238079409781128E+07,
2459748.500000000, A.D. 2022-Jun-18 00:00:00.0000, 2.203768988011973E+08, 2.373435423588852E+08, 3.290519281439209E+07,
2459755.500000000, A.D. 2022-Jun-25 00:00:00.0000, 2.130373103524672E+08, 2.472745088885773E+08, 3.338329100963774E+07,
2459762.500000000, A.D. 2022-Jul-02 00:00:00.0000, 2.054048784219030E+08, 2.568656064012732E+08, 3.381550013677856E+07,
2459769.500000000, A.D. 2022-Jul-09 00:00:00.0000, 1.974965363535331E+08, 2.661117069933717E+08, 3.420228707091741E+07,
2459776.500000000, A.D. 2022-Jul-16 00:00:00.0000, 1.893288878405384E+08, 2.750084478579939E+08, 3.454416803234367E+07,
2459783.500000000, A.D. 2022-Jul-23 00:00:00.0000, 1.809181881854473E+08, 2.835521809624535E+08, 3.484170320292956E+07,
2459790.500000000, A.D. 2022-Jul-30 00:00:00.0000, 1.722803281794044E+08, 2.917399227640461E+08, 3.509549173974299E+07,
2459797.500000000, A.D. 2022-Aug-06 00:00:00.0000, 1.634308237136196E+08, 2.995693047419562E+08, 3.530616689416173E+07,
2459804.500000000, A.D. 2022-Aug-13 00:00:00.0000, 1.543848098485384E+08, 3.070385275758647E+08, 3.547439151975331E+07,
2459811.500000000, A.D. 2022-Aug-20 00:00:00.0000, 1.451570373551817E+08, 3.141463185075169E+08, 3.560085405474490E+07,
2459818.500000000, A.D. 2022-Aug-27 00:00:00.0000, 1.357618714228194E+08, 3.208918911659735E+08, 3.568626489582831E+07,
2459825.500000000, A.D. 2022-Sep-03 00:00:00.0000, 1.262132924426886E+08, 3.272749077207411E+08, 3.573135311156024E+07,
2459832.500000000, A.D. 2022-Sep-10 00:00:00.0000, 1.165248986493875E+08, 3.332954433355607E+08, 3.573686346739781E+07,
2459839.500000000, A.D. 2022-Sep-17 00:00:00.0000, 1.067099103688630E+08, 3.389539528519984E+08, 3.570355373753166E+07,
2459846.500000000, A.D. 2022-Sep-24 00:00:00.0000, 9.678117568052515E+07, 3.442512395707069E+08, 3.563219227238497E+07,
2459853.500000000, A.D. 2022-Oct-01 00:00:00.0000, 8.675117750733376E+07, 3.491884260188357E+08, 3.552355577749805E+07,
2459860.500000000, A.D. 2022-Oct-08 00:00:00.0000, 7.663204234079675E+07, 3.537669271323777E+08, 3.537842728986967E+07,
2459867.500000000, A.D. 2022-Oct-15 00:00:00.0000, 6.643554949496529E+07, 3.579884269559514E+08, 3.519759451674190E+07,
2459874.500000000, A.D. 2022-Oct-22 00:00:00.0000, 5.617313855438223E+07, 3.618548570696362E+08, 3.498184858069399E+07,
2459881.500000000, A.D. 2022-Oct-29 00:00:00.0000, 4.585591737178461E+07, 3.653683740450317E+08, 3.473198271356513E+07,
2459888.500000000, A.D. 2022-Nov-05 00:00:00.0000, 3.549467259602860E+07, 3.685313385801316E+08, 3.444879091651329E+07,
2459895.500000000, A.D. 2022-Nov-12 00:00:00.0000, 2.509988066685189E+07, 3.713462974836063E+08, 3.413306685535845E+07,
2459902.500000000, A.D. 2022-Nov-19 00:00:00.0000, 1.468171846847378E+07, 3.738159674565635E+08, 3.378560296547511E+07,
2459909.500000000, A.D. 2022-Nov-26 00:00:00.0000, 4.250073827376845E+06, 3.759432201823409E+08, 3.340718969743919E+07,
2459916.500000000, A.D. 2022-Dec-03 00:00:00.0000, -6.185444044551671E+06, 3.777310686253410E+08, 3.299861487601228E+07,
2459923.500000000, A.D. 2022-Dec-10 00:00:00.0000, -1.661549417033787E+07, 3.791826544738709E+08, 3.256066315937138E+07,
2459930.500000000, A.D. 2022-Dec-17 00:00:00.0000, -2.703099351228025E+07, 3.803012366216486E+08, 3.209411558451377E+07,
2459937.500000000, A.D. 2022-Dec-24 00:00:00.0000, -3.742310668876633E+07, 3.810901805449958E+08, 3.159974917427059E+07,
2459944.500000000, A.D. 2022-Dec-31 00:00:00.0000, -4.778323537803995E+07, 3.815529486096793E+08, 3.107833657343301E+07,
2459951.500000000, A.D. 2023-Jan-07 00:00:00.0000, -5.810300731412908E+07, 3.816930922018379E+08, 3.053064577379182E+07,
2459958.500000000, A.D. 2023-Jan-14 00:00:00.0000, -6.837426686400014E+07, 3.815142461184266E+08, 2.995744014232096E+07,
2459965.500000000, A.D. 2023-Jan-21 00:00:00.0000, -7.858906784662317E+07, 3.810201219827023E+08, 2.935947854599953E+07,
2459972.500000000, A.D. 2023-Jan-28 00:00:00.0000, -8.873966494396371E+07, 3.802145004315565E+08, 2.873751521597975E+07,
2459979.500000000, A.D. 2023-Feb-04 00:00:00.0000, -9.881850392622621E+07, 3.791012250592993E+08, 2.809229961391558E+07,
2459986.500000000, A.D. 2023-Feb-11 00:00:00.0000, -1.088182124912904E+08, 3.776841978822222E+08, 2.742457644520208E+07,
2459993.500000000, A.D. 2023-Feb-18 00:00:00.0000, -1.187315917844996E+08, 3.759673754572999E+08, 2.673508575369254E+07,
2460000.500000000, A.D. 2023-Feb-25 00:00:00.0000, -1.285516083382667E+08, 3.739547654530418E+08, 2.602456305703066E+07,
2460007.500000000, A.D. 2023-Mar-04 00:00:00.0000, -1.382713863302777E+08, 3.716504236546675E+08, 2.529373951156360E+07,
2460014.500000000, A.D. 2023-Mar-11 00:00:00.0000, -1.478842001315088E+08, 3.690584513706640E+08, 2.454334210140219E+07,
2460021.500000000, A.D. 2023-Mar-18 00:00:00.0000, -1.573834670957569E+08, 3.661829931609105E+08, 2.377409384074207E+07,
2460028.500000000, A.D. 2023-Mar-25 00:00:00.0000, -1.667627403848666E+08, 3.630282348116691E+08, 2.298671396468064E+07,
2460035.500000000, A.D. 2023-Apr-01 00:00:00.0000, -1.760157014013007E+08, 3.595984019255797E+08, 2.218191809965120E+07,
2460042.500000000, A.D. 2023-Apr-08 00:00:00.0000, -1.851361524388278E+08, 3.558977603286716E+08, 2.136041856803383E+07,
2460049.500000000, A.D. 2023-Apr-15 00:00:00.0000, -1.941180118816907E+08, 3.519306171671247E+08, 2.052292494889960E+07,
2460056.500000000, A.D. 2023-Apr-22 00:00:00.0000, -2.029553101341271E+08, 3.477013196162911E+08, 1.967014447773410E+07,
2460063.500000000, A.D. 2023-Apr-29 00:00:00.0000, -2.116421835437948E+08, 3.432142534290858E+08, 1.880278221747643E+07,
2460070.500000000, A.D. 2023-May-06 00:00:00.0000, -2.201728680829428E+08, 3.384738430917298E+08, 1.792154130738918E+07,
2460077.500000000, A.D. 2023-May-13 00:00:00.0000, -2.285416937629831E+08, 3.334845526853873E+08, 1.702712330559115E+07,
2460084.500000000, A.D. 2023-May-20 00:00:00.0000, -2.367430795443760E+08, 3.282508869539642E+08, 1.612022856269129E+07,
2460091.500000000, A.D. 2023-May-27 00:00:00.0000, -2.447715285437279E+08, 3.227773925398467E+08, 1.520155660526590E+07,
2460098.500000000, A.D. 2023-Jun-03 00:00:00.0000, -2.526216234759292E+08, 3.170686594047151E+08, 1.427180652489091E+07,
2460105.500000000, A.D. 2023-Jun-10 00:00:00.0000, -2.602880223036384E+08, 3.111293224130989E+08, 1.333167736840089E+07,
2460112.500000000, A.D. 2023-Jun-17 00:00:00.0000, -2.677654540020617E+08, 3.049640630107952E+08, 1.238186851543863E+07,
2460119.500000000, A.D. 2023-Jun-24 00:00:00.0000, -2.750487141168666E+08, 2.985776110470161E+08, 1.142308001780383E+07,
2460126.500000000, A.D. 2023-Jul-01 00:00:00.0000, -2.821326598610935E+08, 2.919747475626671E+08, 1.045601294451924E+07,
2460133.500000000, A.D. 2023-Jul-08 00:00:00.0000, -2.890122064262322E+08, 2.851603093633705E+08, 9.481369952847496E+06,
2460140.500000000, A.D. 2023-Jul-15 00:00:00.0000, -2.956823257853135E+08, 2.781391925474048E+08, 8.499855970583811E+06,
2460147.500000000, A.D. 2023-Jul-22 00:00:00.0000, -3.021380444637247E+08, 2.709163539517840E+08, 7.512178581885353E+06,
$$EOE